[{"OBJECT_NAME":"STARLINK-31940","OBJECT_ID":"2024-098R","EPOCH":"2026-03-09T13:19:36.161760","MEAN_MOTION":15.27575351,"ECCENTRICITY":5.207e-5,"INCLINATION":43.0013,"RA_OF_ASC_NODE":271.1418,"ARG_OF_PERICENTER":241.0178,"MEAN_ANOMALY":119.0622,"EPHEMERIS_TYPE":0,"CLASSIFICATION_TYPE":"U","NORAD_CAT_ID":59873,"ELEMENT_SET_NO":999,"REV_AT_EPOCH":10191,"BSTAR":1.7422101e-5,"MEAN_MOTION_DOT":2.18e-6,"MEAN_MOTION_DDOT":0},{"OBJECT_NAME":"CZ-6A DEB","OBJECT_ID":"2023-168D","EPOCH":"2026-03-09T19:03:52.964928","MEAN_MOTION":15.28240044,"ECCENTRICITY":0.00013417,"INCLINATION":97.7802,"RA_OF_ASC_NODE":98.3362,"ARG_OF_PERICENTER":174.0661,"MEAN_ANOMALY":186.0594,"EPHEMERIS_TYPE":0,"CLASSIFICATION_TYPE":"U","NORAD_CAT_ID":58202,"ELEMENT_SET_NO":999,"REV_AT_EPOCH":12922,"BSTAR":0.0014474773,"MEAN_MOTION_DOT":0.00039923,"MEAN_MOTION_DDOT":0}]
